01042200:METAR SKBO 010000Z 20007kKT 9999 FEW017 SCT250 16/09 Q1024 NOSIG RMK A3023=
01042201:METAR SKBO 010100Z VRB02KT 9999 FEW017 14/09 Q1025 NOSIG RMK A3028=
01042202:METAR SKBO 010200Z 00000KT 9999 FEW017 11/10 Q1026 NOSIG RMK A3031=
01042203:METAR SKBO 010300Z VRB02KT 9999 FEW020 12/10 Q1027 NOSIG RMK A3034=
01042204:METAR SKBO 010400Z 35003KT 9999 NSC 11/10 Q1027 NOSIG RMK A3033=
01042205:METAR SKBO 010500Z VRB02KT 9999 NSC 12/10 Q1027 NOSIG RMK A3034=
01042206:METAR SKBO 010600Z 36003KT 9999 FEW022 10/09 Q1026 NOSIG RMK A3032=
01042207:METAR SKBO 010700Z 36003KT 9999 SCT040 09/08 Q1026 NOSIG RMK A3029=
01042208:METAR SKBO 010800Z 03003KT 9999 BKN030 09/09 Q1025 NOSIG RMK A3028=
01042209:METAR SKBO 010900Z 05004KT 9999 SCT040 11/09 Q1026 NOSIG RMK A3028=
01042210:METAR SKBO 011000Z 05006KT 9999 FEW040 11/09 Q1025 NOSIG RMK A3028=
01042211:METAR SKBO 011100Z 06005KT 9999 FEW023 10/08 Q1026 NOSIG RMK A3030=
01042212:
01042213:METAR SKBO 011300Z 06007KT 9999 FEW020 SCT080 13/09 Q1028 NOSIG RMK A3036=
01042214:METAR SKBO 011400Z 07006KT 9999 FEW020 16/09 Q1028 NOSIG RMK A3036=
01042215:METAR SKBO 011500Z 04007KT 9999 FEW020 18/09 Q1027 NOSIG RMK A3036=
01042216:METAR SKBO 011600Z 03006KT 9999 BKN020 17/07 Q1027 NOSIG RMK A3035=
01042217:METAR SKBO 011700Z 05005KT 9999 SCT020 SCT080 18/09 Q1027 NOSIG RMK A3033=
01042218:METAR SKBO 011800Z VRB02KT 9999 SCT020 SCT080 20/09 Q1025 NOSIG RMK A3029=
01042219:METAR SKBO 011900Z 16005KT 9999 SCT020 SCT080 21/09 Q1024 NOSIG RMK A3025=
01042220:METAR SKBO 012000Z VRB02KT 9999 SCT020 SCT080 20/08 Q1023 NOSIG RMK A3023=
01042221:METAR SKBO 012100Z 31010KT 9999 SCT020 18/12 Q1023 NOSIG RMK A3022=
01042222:METAR SKBO 012200Z 30009KT 9999 SCT020 SCT080 17/13 Q1023 NOSIG RMK A3023=
01042223:METAR SKBO 012300Z 30006KT 9999 SCT020 16/12 Q1024 NOSIG RMK A3025=
02042200:METAR SKBO 020000Z 26005KT 9999 SCT015 SCT070 15/12 Q1025 NOSIG RMK A3029=
02042201:METAR SKBO 020100Z 21004KT 9999 VCSH SCT015 SCT070 15/11 Q1026 NOSIG RMK VCSH/N A3033=
02042202:METAR SKBO 020200Z VRB02KT 9999 SCT015 12/11 Q1027 NOSIG RMK A3035=
02042203:METAR SKBO 020300Z 05004KT 9999 BKN015 14/10 Q1028 NOSIG RMK A3037=
02042204:METAR SKBO 020400Z 06004KT 9999 SCT015 SCT070 13/10 Q1028 NOSIG RMK A3037=
02042205:METAR SKBO 020500Z 05005KT 9999 SCT015 SCT070 13/10 Q1028 NOSIG RMK A3036=
02042206:METAR SKBO 020500Z 05005KT 9999 SCT015 SCT070 13/10 Q1028 NOSIG RMK A3036=
02042207:METAR SKBO 020700Z 04005KT 9999 SCT015 BKN070 12/10 Q1027 NOSIG RMK A3033=
02042208:METAR SKBO 020800Z 04007KT 9999 SCT015 BKN070 12/10 Q1026 NOSIG RMK A3029=
02042209:METAR SKBO 020900Z 04004KT 9999 SCT015 BKN070 12/10 Q1026 NOSIG RMK A3031=
02042210:METAR SKBO 021000Z 07005KT 9999 FEW010 BKN070 12/10 Q1026 NOSIG RMK A3032=
02042211:METAR SKBO 021100Z 06006KT 9999 BKN015 12/09 Q1027 NOSIG RMK A3035=
02042212:METAR SKBO 021200Z VRB02KT 9999 SCT020 SCT080 13/09 Q1028 NOSIG RMK A3037=
02042213:METAR SKBO 021300Z 07006KT 9999 SCT020 BKN080 14/09 Q1029 NOSIG RMK A3039= 
02042214:METAR SKBO 021400Z 10005KT 9999 FEW020 BKN080 16/09 Q1029 NOSIG RMK A3040=
02042215:METAR SKBO 021500Z 09004KT 9999 SCT020 BKN080 16/09 Q1029 NOSIG RMK A3040=
02042216:METAR SKBO 021600Z 13007KT 9999 SCT020 BKN080 16/09 Q1029 NOSIG RMK A3039=
02042217:METAR SKBO 021700Z 09006KT 9999 SCT020 BKN080 18/09 Q1028 NOSIG RMK A3036=
02042218:METAR SKBO 021800Z 07006KT 9999 SCT020 BKN080 17/10 Q1027 NOSIG RMK A3033=
02042219:METAR SKBO 021900Z 11010KT 9999 SCT020 SCT080 18/10 Q1025 NOSIG RMK A3028=
02042220:METAR SKBO 022000Z 13010KT 9999 SCT020 BKN080 18/09 Q1025 NOSIG RMK A3027=
02042221:METAR SKBO 022100Z 17012KT 9999 FEW020 BKN080 18/09 Q1024 NOSIG RMK A3026=
02042222:METAR SKBO 022200Z 16010KT 9999 FEW030 BKN070 17/09 Q1024 NOSIG RMK A3026=
02042223:METAR SKBO 022300Z 15008KT 9999 FEW030 SCT200 16/10 Q1025 NOSIG RMK A3027=
03042200:METAR SKBO 030000Z 15006KT 9999 FEW020 SCT080 16/08 Q1025 NOSIG RMK A3029=
03042201:METAR SKBO 030100Z VRB02KT 9999 FEW020 15/08 Q1026 NOSIG RMK A3031=
03042202:METAR SKBO 030200Z VRB02KT 9999 FEW020 SCT080 14/08 Q1027 NOSIG RMK A3035=
03042203:METAR SKBO 030300Z 04003KT 9999 FEW017 SCT200 12/09 Q1028 NOSIG RMK A3037=
03042204:METAR SKBO 030400Z 16003KT 9999 FEW015 BKN200 12/09 Q1028 NOSIG RMK A3036=
03042205:METAR SKBO 030500Z 03003KT 9999 FEW015 BKN200 11/09 Q1028 NOSIG RMK A3036=
03042206:METAR SKBO 030600Z 05004KT 9999 FEW017 BKN200 11/09 Q1027 NOSIG RMK A3033=
03042207:METAR SKBO 030700Z VRB02KT 9999 FEW017 SCT200 09/08 Q1026 NOSIG RMK A3032=
03042208:METAR SKBO 030800Z VRB02KT 9999 FEW017 SCT200 09/08 Q1025 NOSIG RMK A3029=
03042209:METAR SKBO 030900Z VRB02KT 9999 FEW017 SCT200 09/08 Q1025 NOSIG RMK A3028=
03042210:METAR SKBO 031000Z 03004KT 9999 FEW017 SCT200 07/06 Q1025 NOSIG RMK A3029=
03042211:METAR SKBO 031100Z 05004KT 9999 FEW020 SCT080 09/09 Q1025 NOSIG RMK A3029=
03042212:METAR SKBO 031200Z VRB02KT 9999 FEW017 SCT040 BKN150 10/09 Q1026 NOSIG RMK A3030=
03042213:METAR SKBO 031300Z VRB02KT 9999 FEW017 BKN040 13/10 Q1026 NOSIG RMK A3032=
03042214:METAR SKBO 031400Z VRB03KT 9999 FEW017 BKN040 15/10 Q1027 NOSIG RMK A3034=
03042215:METAR SKBO 031500Z VRB04KT 9999 FEW023 SCT050 17/11 Q1027 NOSIG RMK A3034=
03042216:METAR SKBO 031600Z 05007KT 350V080 9999 SCT025 BKN060 18/11 Q1027 NOSIG RMK A3034=
03042217:METAR SKBO 031700Z 07007KT 020V170 9999 FEW030 SCT070 19/10 Q1027 NOSIG RMK A3034=
03042218:METAR SKBO 031800Z 05009KT 010V120 9999 SCT025 20/10 Q1025 NOSIG RMK A3028=
03042219:METAR SKBO 031900Z VRB05KT 9999 SCT025 20/10 Q1024 NOSIG RMK A3024=
03042220:METAR SKBO 032000Z 23007KT 190V270 9999 VCSH SCT023CB 20/12 Q1023 TEMPO DZ RMK CB VCSH/NW A3021=
03042221:METAR SKBO 032100Z 24012KT 190V250 9999 VCSH SCT023TCU BKN080 18/12 Q1022 REDZ TEMPO DZ RMK TCU VCSH/SE/NW A3020=
03042222:METAR SKBO 032200Z 25008KT 9999 VCSH SCT020TCU BKN080 16/13 Q1023 REDZ TEMPO DZ RMK TCU/NE VCSH/NE/NW A3022=
03042223:METAR SKBO 032300Z 04006KT 9999 VCSH SCT02CB BKN080 15/13 Q1024 RETS NOSIG RMK CB VCSH/NW/N A3025=
04042200:METAR SKBO 040000Z 02004KT 9999 BKN018 SCT070 13/12 Q1024 NOSIG RMK A3026=
04042201:METAR SKBO 040100Z 03003KT 9999 BKN018 SCT070 13/12 Q1025 NOSIG RMK A3029=
04042202:METAR SKBO 040200Z VRB02KT 9999 BKN018 SCT070 13/11 Q1026 NOSIG RMK A3031=
04042203:METAR SKBO 040300Z 36003KT 9999 BKN018 SCT070 12/12 Q1027 NOSIG RMK A3033=
04042204:METAR SKBO 040400Z VRB02KT 9999 BKN018 SCT070 12/11 Q1027 NOSIG RMK A3034=
04042205:METAR SKBO 040500Z 07003KT 9999 SCT018 SCT070 12/10 Q1027 NOSIG RMK A3032=
04042206:METAR SKBO 040600Z 32003KT 9999 SCT018 SCT070 11/10 Q1026 NOSIG RMK A3031=
04042207:METAR SKBO 040700Z VRBO2KT 9999 SCT018 BKN070 11/10 Q1025 NOSIG RMK A3029=
04042208:METAR SKBO 040800Z VRBO2KT 9999 SCT018 BKN070 11/10 Q1025 NOSIG RMK A3028=
04042209:METAR SKBO 040900Z 00000KT 9999 SCT018 BKN070 11/10 Q1025 NOSIG RMK A3027=
04042210:METAR SKBO 041000Z 05003KT 9999 SCT018 BKN070 12/10 Q1025 NOSIG RMK A3029=
04042211:METAR SKBO 041100Z 05005KT 9999 SCT018 BKN070 12/10 Q1025 NOSIG RMK A3030=
04042212:METAR SKBO 041200Z 05005KT 9999 SCT022 SCT250 13/11 Q1026 NOSIG RMK A3032=
04042213:METAR SKBO 041300Z 04006KT 9999 SCT022 BKN250 14/12 Q1027 NOSIG RMK A3034=
04042214:METAR SKBO 041400Z 06005KT 9999 SCT022 BKN250 16/11 Q1028 NOSIG RMK A3036=
04042215:METAR SKBO 041500Z 05007KT 9999 SCT022 SCT080 18/11 Q1028 NOSIG RMK A3036=
04042216:METAR SKBO 041600Z 10007KT 030V160 9999 SCT022 19/10 Q1027 NOSIG RMK A3034=
04042217:METAR SKBO 041700Z 13010KT 080V160 9999 SCT022 20/10 Q1026 NOSIG RMK A3031=
04042218:METAR SKBO 041800Z 11008KT 9999 BKN023 SCT080 20/08 Q1025 NOSIG RMK A3029=
04042219:METAR SKBO 041900Z 10009KT 9999 FEW020 SCT080 21/11 Q1024 NOSIG RMK A3025=
04042220:METAR SKBO 042000Z 12010KT 9999 SCT020 18/09 Q1023 NOSIG RMK A3022=
04042221:METAR SKBO 042100Z 14008KT 9999 SCT020 19/09 Q1022 NOSIG RMK A3020=
04042222:METAR SKBO 042200Z 09005KT 9999 SCT020 19/08 Q1022 NOSIG RMK A3019=
04042223:METAR SKBO 042300Z 21005KT 9999 FEW020TCU 18/11 Q1023 NOSIG RMK TCU/W A3022=
05042200:METAR SKBO 050000Z 31006KT 9999 SCT020 14/12 Q1024 NOSIG RMK A3025=
05042201:METAR SKBO 050100Z 27005KT 9999 SCT020 14/12 Q1025 NOSIG RMK A3028=
05042202:METAR SKBO 050200Z VRB02KT 9999 SCT020 SCT080 14/12 Q1026 NOSIG RMK A3030=
05042203:METAR SKBO 050300Z VRB02KT 9999 SCT017TCU BKN040 14/11 Q1027 TEMPO FM03030 RA RMK TCU/SE A3032=
05042204:METAR SKBO 050400Z VRB02KT 9000 -RA FEW015 BKN050 12/11 Q1027 NOSIG RMK A3034=
05042205:METAR SKBO 050500Z 34003KT 9999 FEW012 BKN070 12/11 Q1027 RERA NOSIG RMK A3034=
05042206:METAR SKBO 050600Z VRB02KT 9999 FEW017 BKN070 11/11 Q1026 NOSIG RMK A3032=
05042207:METAR SKBO 050700Z VRB02KT 9999 FEW017 BKN070 12/11 Q1026 NOSIG RMK A3030=
05042208:METAR SKBO 050800Z VRB02KT 9999 FEW017 SCT070 12/11 Q1025 NOSIG A3029=
05042209:METAR SKBO 050900Z 32004KT 9999 FEW020 SCT070 12/11 Q1026 NOSIG RMK A3030=
05042210:METAR SKBO 051000Z 33004KT 8000 VCFG SCT017 SCT070 12/11 Q1026 NOSIG RMK A3031=
05042211:
05042212:METAR SKBO 051200Z 01003KT 5000 DZ SCT015 OVC070 12/11 Q1027 NOSIG RMK A3034=
05042213:METAR SKBO 051300Z VRB02KT 6000 -DZ SCT017 OVC070 12/11 Q1028 NOSIG RMK A3036=
05042214:METAR SKBO 051400Z 02003KT 6000 -DZ SCT020 OVC070 13/12 Q1029 NOSIG RMK A3039=
05042215:METAR SKBO 051500Z VRB02KT 8000 FEW020 BKN080 15/12 Q1028 REDZ NOSIG RMK HZ A3038=
05042216:METAR SKBO 051600Z 16003KT 9999 SCT020 BKN080 16/10 Q1028 NOSIG RMK A3037=
05042217:METAR SKBO 051700Z 16011KT 9999 SCT020 BKN080 18/10 Q1027 NOSIG RMK A3034=
05042218:METAR SKBO 051800Z 14014KT 9999 SCT023 BKN080 19/08 Q1025 NOSIG RMK A3029=
05042219:METAR SKBO 051900Z 12006KT 9999 SCT023 BKN200 19/09 Q1024 NOSIG RMK A3024
05042220:METAR SKBO 052000Z 08004KT 9999 SCT023 SCT200 21/10 Q1022 NOSIG RMK A3020=
05042221:METAR SKBO 052100Z 04006KT 9999 SCT023 SCT200 21/08 Q1021 NOSIG RMK A3017=
05042222:METAR SKBO 052200Z 30006KT 9999 SCT023 19/13 Q1022 NOSIG RMK A3019=
05042223:METAR SKBO 052300Z 28006KT 9999 DZ SCT020 FEW025TCU 16/13 Q1023 NOSIG RMK TCU/N A3022=
06042200:METAR SKBO 060000Z 31007KT 9999 3000W -TSRA BKN020CB SCT070 14/11 Q1024 NOSIG RMK CB/W A3025=
06042201:METAR SKBO 060100Z 30005KT 8000 TS BKN020CB SCT070 13/12 Q1025 RETSRA TEMPO DZ RMK CB/SE VCSH/SE/S A3029=
06042202:METAR SKBO 060200Z 17006KT 9000 -DZ FEW004 SCT020 BKN070 14/12 Q1026 RETS NOSIG RMK A3030=
06042203:METAR SKBO 060300Z 24003KT 9999 BKN018 14/11 Q1027 REDZ NOSIG RMK A3033=
06042204:METAR SKBO 060400Z VRB02KT 9999 BKN018 12/12 Q1027 NOSIG RMK A3034=
06042205:METAR SKBO 060500Z 22003KT 9999 -DZ BKN015 13/12 Q1027 NOSIG RMK A3034=
06042206:METAR SKBO 060600Z 00000KT 9999 BKN015 13/12 Q1026 REDZ NOSIG RMK A3032=
06042207:METAR SKBO 060700Z 21006KT 7000 DZ BKN015 13/12 Q1026 NOSIG RMK A3030=
06042208:METAR SKBO 060800Z 32003KT 8000 -DZ BKN015 12/11 Q1025 NOSIG RMK A3028=
06042209:METAR SKBO 060900Z VRB02KT 9000 -DZ FEW005 BKN010 12/11 Q1025 NOSIG RMK A3029=
06042210:METAR SKBO 061000Z VRB02KT 9999 FEW007 BKN015 12/11 Q1025 REDZ NOSIG RMK A3029=
06042211:METAR SKBO 061100Z VRB02KT 9999 VCSH FEW007 BKN020 12/11 Q1026 NOSIG RMK VCSH/S/SW A3030=
06042212:METAR SKBO 061200Z VRB02KT 9999 FEW010 BKN020 12/11 Q1026 NOSIG RMK A3032=
06042213:METAR SKBO 061300Z VRB02KT 9999 SCT017 15/11 Q1027 NOSIG RMK A3034=
06042214:METAR SKBO 061400Z 12005KT 9999 BKN020 16/10 Q1027 WS R13L NOSIG RMK A3035=
06042215:METAR SKBO 061500Z 14004KT 9999 BKN020 18/10 Q1027 NOSIG RMK A3034=
06042216:METAR SKBO 061600Z 10004KT 9999 BKN023 18/11 Q1027 NOSIG RMK A3033= 
06042217:METAR SKBO 061700Z 13009KT 9999 BKN023 SCT200 20/11 Q1026 NOSIG RMK A3031=
06042218:METAR SKBO 061800Z 12007KT 9999 SCT020 20/11 Q1025 NOSIG RMK A3027=
06042219:METAR SKBO 061900Z 14012KT 9999 SCT020 20/11 Q1024 NOSIG RMK A3024=
06042220:
06042221:METAR SKBO 062100Z 14007KT 9999 SCT020 20/10 Q1022 NOSIG RMK A3019=
06042222:METAR SKBO 062200Z 10004KT 9999 SCT020 19/10 Q1022 NOSIG RMK A3020=
06042223:METAR SKBO 062300Z 08008KT 9999 SCT020 18/10 Q1023 NOSIG RMK A3022=
07042200:
07042201:METAR SKBO 070100Z 18005KT 9999 VCSH SCT015 16/11 Q1025 NOSIG RMK VCSH/NW A3029=
07042202:METAR SKBO 070200Z 19007KT 9999 SCT015 16/10 Q1026 NOSIG RMK A3030=
07042203:METAR SKBO 070300Z VRB02KT 9999 SCT015 15/10 Q1027 NOSIG RMK A3033=
07042204:METAR SKBO 070400Z 12004KT 9999 SCT017 15/10 Q1026 NOSIG RMK A3032=
07042205:METAR SKBO 070500Z 19006KT 9999 FEW017 SCT070 15/09 Q1026 NOSIG RMK A3032=
07042206:METAR SKBO 070600Z 04005KT 9999 FEW017 BKN070 13/11 Q1026 NOSIG RMK A3031=
07042207:METAR SKBO 070700Z 03005KT 9999 FEW017 BKN070 13/11 Q1025 NOSIG RMK A3029=
07042208:METAR SKBO 070800Z 06003KT 9999 FEW017 SCT070 12/11 Q1024 NOSIG RMK A3026=
07042209:METAR SKBO 070900Z 03007KT 9999 FEW017 SCT070 12/10 Q1024 NOSIG RMK A3026=
07042210:
07042211:METAR SKBO 071100Z VRB02KT 9999 FEW015 BKN070 11/10 Q1026 NOSIG RMK A3030=
07042212:METAR SKBO 071200Z 35004KT 9999 FEW017 SCT070 BKN200 12/11 Q1026 NOSIG RMK A3032=
07042213:METAR SKBO 071300Z 01003KT 9999 FEW017 SCT070 BKN200 14/11 Q1027 NOSIG RMK A3034=
07042214:METAR SKBO 071400Z VRB02KT 9999 SCT017 SCT070 16/09 Q1028 NOSIG RMK A3036=
07042215:METAR SKBO 071500Z 05007KT 9999 BKN020 SCT070 17/10 Q1028 NOSIG A3036= 
07042216:METAR SKBO 071600Z 12004KT 9999 SCT020 BKN070 18/10 Q1027 NOSIG RMK A3034=
07042217:METAR SKBO 071700Z 06004KT 9999 SCT020 SCT070 19/09 Q1026 NOSIG RMK A3031=
07042218:METAR SKBO 071800Z 05007G17KT 9999 VCSH BKN020 SCT070 18/10 Q1025 TEMPO DZ RMK VCSH/NE/NW A3028=
07042219:METAR SKBO 071900Z 22008KT 9999 VCSH BKN020 SCT070 18/11 Q1024 TEMPO DZ RMK VCSH/E A3025=
07042220:METAR SKBO 072000Z 21010KT 9999 SCT020 SCT070 19/11 Q1023 NOSIG RMK A3021=
07042221:METAR SKBO 072100Z 24007KT 9999 SCT020 BKN200 18/12 Q1022 NOSIG RMK A3020=
07042222:METAR SKBO 072200Z 28008KT 9999 VCSH FEW020 SCT023TCU BKN200 17/12 Q1023 NOSIG RMK TCU/VCSH/NE/SE RMK A3021= 
07042223:METAR SKBO 072300Z 19004KT 8000 TSRA FEW017 SCT020CB SCT070 14/12 Q1024 TEMPO FM2330 -DZ RMK CB/SE A3025=
08042200:METAR SKBO 080000Z VRB03KT 9000 -TSRA FEW015CB BKN040 14/12 Q1025 RMK A3025=
08042201:METAR SKBO 080100Z VRB02KT 9999 FEW017 SCT030 BKN070 13/12 Q1026 RETSRA RMK A3030=
08042202:METAR SKBO 080200Z 35003KT 9999 FEW023 BKN070 13/12 Q1027 NOSIG RMK A3033=
08042203:METAR SKBO 080300Z VRB02KT 9999 FEW015 SCT070 13/11 Q1027 NOSIG RMK A3034=
08042204:
08042205:METAR SKBO 080500Z 04004KT 340V050 9999 SCT017 BKN040 13/12 Q1027 NOSIG RMK A3033=
08042206:METAR SKBO 080600Z 04004KT 9999 SCT017 BKN030 13/11 Q1026 NOSIG RMK A3031=
08042207:METAR SKBO 080700Z 17003KT 9999 FEW020 13/09 Q1025 NOSIG RMK A3029=
08042208:METAR SKBO 080800Z 00000KT 9999 FEW020 SCT070 12/10 Q1025 NOSIG RMK A3028=
08042209:METAR SKBO 080900Z 04003KT 9999 FEW020 11/09 Q1025 NOSIG RMK A3029=
08042210:METAR SKBO 081000Z 00000KT 9999 FEW020 11/10 Q1026 NOSIG RMK A3030=
08042211:METAR SKBO 081100Z VRB02KT 9999 FEW023 09/08 Q1023 NOSIG RMK A3031=
08042212:METAR SKBO 081200Z VRB02KT 9999 FEW020 SCT200 12/11 Q1027 NOSIG RMK A3033=
08042213:METAR SKBO 081300Z 05004KT 9999 FEW020 SCT200 15/11 Q1028 NOSIG RMK A3036=
08042214:METAR SKBO 081400Z 03004KT 320V090 9999 FEW020 SCT200 17/10 Q1028 NOSIG RMK A3037=
08042215:METAR SKBO 081500Z 36006KT 9999 SCT020 SCT080 17/11 Q1028 NOSIG RMK A3036=
08042216:METAR SKBO 081600Z VRB02KT 9999 BKN020 SCT080 17/10 Q1028 NOSIG RMK A3036=
08042217:METAR SKBO 081700Z 28004KT 9999 SCT020 SCT080 18/10 Q1027 WS R13L NOSIG RMK A3033=
08042218:METAR SKBO 081800Z 14005KT 9999 BKN020TCU SCT080 18/10 Q1025 NOSIG RMK TCU/N A3029=
08042219:METAR SKBO 081900Z 26006KT 9999 SCT020TCU SCT080 19/13 Q1024 NOSIG RMK TCU/NE/SE A3024=
08042220:METAR SKBO 082000Z 36006KT 8000 VCSH SCT020TCU SCT080 17/13 Q1023 REDZ NOSIG RMK TCU VCSH/NW A3022=
08042221:METAR SKBO 082100Z 28010KT 9999 SCT020TCU SCT080 16/13 Q1023 NOSIG RMK TCU/E A3023=
08042222:METAR SKBO 082200Z 23006KT 9999 SCT020 SCT080 16/13 Q1023 NOSIG RMK A3023=
08042223:METAR SKBO 082300Z 31005KT 9999 SCT020 15/13 Q1024 NOSIG RMK A3025=
09042200:METAR SKBO 090000Z 01003KT 9999 SCT017 SCT070 14/12 Q1025 NOSIG RMK A3028=
09042201:METAR SKBO 090100Z 33003KT 9999 SCT017 13/12 Q1026 NOSIG RMK A3031=
09042202:
09042203:
09042204:METAR SKBO 090400Z 06006KT 9999 FEW015 13/11 Q1028 NOSIG RMK A3036=
09042205:METAR SKBO 090500Z 05005KT 9999 FEW015 BKN070 12/10 Q1027 NOSIG RMK A3035=
09042206:METAR SKBO 090600Z 05006KT 9999 FEW015 SCT070 12/10 Q1027 NOSIG RMK A3033=
09042207:METAR SKBO 090700Z 05006KT 9999 FEW015 SCT070 12/10 Q1026 NOSIG RMK A3031=
09042208:METAR SKBO 090800Z 04004KT 9999 FEW015 BKN070 12/10 Q1026 NOSIG RMK A3031=
09042209:METAR SKBO 090900Z 33004KT 9999 FEW015 BKN070 11/10 Q1026 NOSIG RMK A3031=
09042210:METAR SKBO 091000Z 32003KT 9999 FEW017 SCT070 11/09 Q1026 NOSIG RMK A3031=
09042211:METAR SKBO 091100Z 05004KT 9999 FEW015 BKN200 11/09 Q1026 NOSIG RMK A3032=
09042212:METAR SKBO 091200Z VRB02KT 9999 FEW015 SCT080 13/10 Q1027 NOSIG RMK A3035=
09042213:METAR SKBO 091300Z 03006KT 9999 FEW018 SCT080 14/11 Q1028 NOSIG RMK A3037=
09042214:METAR SKBO 091400Z VRB02KT 9999 SCT020 17/11 Q1028 NOSIG RMK A3037=
09042215:METAR SKBO 091500Z VRB03KT 9999 SCT022 SCT080 18/10 Q1028 NOSIG RMK A3037=
09042216:METAR SKBO 091600Z VRB07KT 9999 SCT022 SCT080 19/09 Q1027 NOSIG RMK A3035=
09042217:METAR SKBO 091700Z 15010KT 110V190 9999 SCT022 SCT080 19/09 Q1027 NOSIG RMK A3032=
09042218:METAR SKBO 091800Z 12005KT 9999 BKN020 SCT080 19/09 Q1026 NOSIG RMK A3030=
09042219:METAR SKBO 091900Z 06005KT 9999 SCT020 SCT080 20/10 Q1024 NOSIG RMK A3027=
09042220:METAR SKBO 092000Z 14006KT 9999 SCT020 SCT080 20/09 Q1023 NOSIG RMK A3023=
09042221:METAR SKBO 092100Z 34005KT 9999 SCT020 SCT200 19/12 Q1023 NOSIG RMK A3021=
09042222:METAR SKBO 092200Z 24010KT 9999 FEW020 BKN200 17/12 Q1023 NOSIG RMK A3022=
09042223:METAR SKBO 092300Z 27006KT 9999 FEW020 SCT200 16/12 Q1023 NOSIG RMK A3025=
10042200:METAR SKBO 100000Z 29006KT 9999 FEW020 SCT200 15/11 Q1024 NOSIG RMK A3026=
10042201:METAR SKBO 100100Z 25004KT 9999 FEW020 SCT200 15/11 Q1026 NOSIG RMK A3031=
10042202:METAR SKBO 100200Z 24004KT 9999 SCT020 14/11 Q1027 NOSIG RMK A3033=
10042203:METAR SKBO 100300Z 01004KT 9999 BKN020 13/11 Q1027 NOSIG RMK A3034=
10042204:METAR SKBO 100400Z VRB02KT 9999 SCT020 SCT200 12/10 Q1027 NOSIG RMK A3034=
10042205:METAR SKBO 100500Z VRB02KT 9999 SCT020 SCT200 12/10 Q1027 NOSIG RMK A3032=
10042206:METAR SKBO 100600Z 00000KT 9999 BKN018 12/09 Q1026 NOSIG RMK A3031=
10042207:METAR SKBO 100700Z 12005KT 9999 SCT017 13/08 Q1026 NOSIG RMK A3029=
10042208:METAR SKBO 100800Z VRB02KT 9999 FEW020 SCT200 12/08 Q1025 NOSIG RMK A3028=
10042209:METAR SKBO 100900Z VRB02KT 9999 SCT020 09/08 Q1025 NOSIG RMK A3028=
10042210:METAR SKBO 101000Z VRB02KT 9999 FEW020 SCT200 10/08 Q1025 NOSIG RMK A3029=
10042211:METAR SKBO 101100Z VRB02KT 9999 FEW030 SCT200 10/08 Q1026 NOSIG RMK A3031=
10042212:METAR SKBO 101200Z 06003KT 9999 NSC 12/09 Q1026 NOSIG RMK A3032=
10042213:METAR SKBO 101300Z 03006KT 9999 NSC 15/09 Q1027 NOSIG RMK A3035=
10042214:METAR SKBO 101400Z 03004KT 9999 NSC 16/09 Q1027 NOSIG RMK A3035=
10042215:METAR SKBO 101500Z 36004KT 9999 FEW023 BKN200 18/09 Q1027 NOSIG RMK A3034=
10042216:METAR SKBO 101600Z 29005KT 9999 FEW023 BKN200 19/09 Q1027 NOSIG RMK A3032=
10042217:METAR SKBO 101700Z 32007KT 9999 SCT023 SCT200 19/09 Q1026 NOSIG RMK A3029=
10042218:METAR SKBO 101800Z 29008KT 9999 BKN027 SCT200 19/10 Q1025 NOSIG RMK A3027=
10042219:METAR SKBO 101900Z 25009KT 9999 BKN027 19/11 Q1023 NOSIG RMK A3023=
10042220:METAR SKBO 102000Z 30009KT 9999 VCSH FEW020TCU BKN027 18/12 Q1023 TEMPO DZ RMK TCU VCSH/E A3021=
10042221:METAR SKBO 102100Z 27010KT 9999 VCSH FEW018 BKN027 18/12 Q1022 REDZ TEMPO DZ RMK VCSH E/S A3020=
10042222:METAR SKBO 102200Z 22007KT 9000 -DZ SCT017 BKN070 16/12 Q1023 TEMPO RA RMK A3022=
10042223:METAR SKBO 102300Z 29004KT 9999 VCSH SCT017 BKN070 14/12 Q1024 REDZ NOSIG RMK VCSH/NW A3024=
11042200:METAR SKBO 110000Z 30003KT 9999 SCT017 BKN070 13/12 Q1025 NOSIG RMK A3026=
11042201:METAR SKBO 110100Z 00000KT 9999 SCT017 SCT070 12/11 Q1026 NOSIG RMK A3029=
11042202:METAR SKBO 110200Z VRB02KT 9999 SCT017 BKN070 13/11 Q1026 NOSIG RMK A3032=
11042203:METAR SKBO 110300Z 00000KT 9999 SCT017 BKN070 12/11 Q1027 TEMPO DZ RMK A3033=
11042204:METAR SKBO 110400Z VRB02KT 9999 FEW017 BKN070 12/11 Q1027 NOSIG RMK A3033=
11042205:METAR SKBO 110500Z 05004KT 9999 FEW017 BKN070 12/11 Q1026 NOSIG RMK A3032=
11042206:METAR SKBO 110600Z 33003KT 9999 FEW017 BKN070 12/11 Q1026 NOSIG RMK A3030=
11042207:METAR SKBO 110700Z 00000KT 9999 FEW015 BKN070 12/10 Q1025 NOSIG RMK A3028=
11042208:METAR SKBO 110800Z 01004KT 9999 FEW015 BKN070 12/11 Q1025 NOSIG RMK A3027=
11042209:METAR SKBO 110900Z 07003KT 9999 FEW015 BKN070 13/11 Q1025 NOSIG RMK A3026=
11042210:METAR SKBO 111000Z 05006KT 9999 FEW015 BKN070 12/10 Q1025 NOSIG RMK A3027=
11042211:
11042212:METAR SKBO 111200Z 03004KT 9999 BKN025 13/11 Q1026 NOSIG RMK A3031=
11042213:METAR SKBO 111300Z 03005KT 9999 SCT020 SCT070 14/11 Q1027 NOSIG RMK A3034=
11042214:METAR SKBO 111400Z 35004KT 9999 SCT020 SCT200 16/11 Q1027 NOSIG RMK A3035=
11042215:METAR SKBO 111500Z 04004KT 9999 BKN020 17/10 Q1027 NOSIG RMK A3034=
11042216:METAR SKBO 111600Z 11006KT 9999 BKN020 19/10 Q1027 NOSIG RMK A3032=
11042217:METAR SKBO 111700Z 14011KT 9999 BKN020 19/10 Q1026 NOSIG RMK A3031=
11042218:METAR SKBO 111800Z 15012KT 9999 BKN020 SCT200 20/11 Q1025 NOSIG RMK A3028=
11042219:METAR SKBO 111900Z 14008KT 9999 BKN020 SCT200 20/09 Q1023 NOSIG RMK A3024=
11042220:METAR SKBO 112000Z 13008KT 9999 BKN020 SCT200 20/09 Q1022 NOSIG RMK A3021=
11042221:METAR SKBO 112100Z 27007KT 9999 SCT020 SCT200 19/13 Q1022 NOSIG RMK A3020=
11042222:METAR SKBO 112200Z 25007KT 9999 SCT020 SCT200 18/13 Q1022 NOSIG RMK A3021=
11042223:METAR SKBO 112300Z 24005KT 9999 VCSH SCT020TCU SCT200 17/12 Q1024 NOSIG RMK TCU VCSH/W A3023=
12042200:METAR SKBO 120000Z 34004KT 9999 FEW023 14/12 Q1024 NOSIG RMK A3026=
12042201:METAR SKBO 120100Z 34005KT 9999 FEW017 BKN070 14/11 Q1025 NOSIG RMK A3029=
12042202:METAR SKBO 120200Z 09007KT 9999 FEW017 SCT070 16/10 Q1026 NOSIG RMK A3032=
12042203:METAR SKBO 120300Z 08007KT 9999 FEW017 SCT070 15/10 Q1027 NOSIG RMK A3033=
12042204:METAR SKBO 120400Z 04005KT 9999 FEW017 13/10 Q1027 NOSIG RMK A3032=
12042205:METAR SKBO 120500Z 08005KT 9999 FEW017 SCT070 14/11 Q1026 NOSIG RMK A3031=
12042206:METAR SKBO 120600Z 36004KT 9999 FEW017 BKN070 14/10 Q1025 NOSIG RMK A3029=
12042207:METAR SKBO 120700Z 05003KT 9999 FEW017 BKN030 13/11 Q1025 NOSIG RMK A3027=
12042208:METAR SKBO 120800Z 05005KT 9999 FEW017 SCT030 BKN080 14/10 Q1024 NOSIG RMK A3035=
12042209:METAR SKBO 120900Z 06003KT 9999 FEW017 BKN040 14/10 Q1024 NOSIG RMK A3025=
12042210:
12042211:METAR SKBO 121100Z 13004KT 9999 FEW015 BKN030 15/10 Q1025 NOSIG RMK A3029=
12042212:METAR SKBO 121200Z 08004KT 9999 FEW023 15/09 Q1026 NOSIG RMK A3030=
12042213:METAR SKBO 121300Z 11007KT 9999 BKN023 16/09 Q1027 NOSIG RMK A3032=
12042214:METAR SKBO 121400Z 14008KT 9999 SCT025 17/10 Q1027 NOSIG RMK A3033=
12042215:METAR SKBO 121500Z 13012KT 9999 BKN025 18/08 Q1027 NOSIG RMK A3033=
12042216:METAR SKBO 121600Z 11008KT 9999 OVC025 17/09 Q1027 NOSIG RMK A3033=
12042217:METAR SKBO 121700Z 14010KT 9999 BKN025 19/10 Q1026 NOSIG RMK A3030=
12042218:METAR SKBO 121800Z 15013KT 9999 BKN025 19/10 Q1025 NOSIG RMK A3027=
12042219:METAR SKBO 121900Z 14010KT 9999 BKN025 18/10 Q1024 NOSIG RMK A3025=
12042220:METAR SKBO 122000Z 12009KT 9999 BKN025 19/09 Q1023 NOSIG RMK A3023=
12042221:METAR SKBO 122100Z 14008KT 9999 SCT025 19/08 Q1023 NOSIG RMK A3020=
12042222:METAR SKBO 122200Z 05006KT 9999 BKN025 19/09 Q1023 NOSIG RMK A3020=
12042223:METAR SKBO 122300Z 13008KT 9999 VCSH BKN025 18/09 Q1024 NOSIG RMK VCSH/NE A3023=
13042200:METAR SKBO 130000Z 12010KT 9999 BKN020 17/09 Q1024 NOSIG RMK A3026=
13042201:METAR SKBO 130100Z 12006KT 9999 FEW020 SCT200 16/08 Q1025 NOSIG RMK A3028=
13042202:METAR SKBO 130200Z 08004KT 9999 FEW020 SCT200 14/08 Q1025 NOSIG RMK A3030=
13042203:METAR SKBO 130300Z 05004KT 9999 FEW015 13/09 Q1026 NOSIG RMK A3032=
13042204:METAR SKBO 130400Z 08004KT 9999 FEW015 12/09 Q1027 NOSIG RMK A3032=
13042205:METAR SKBO 130500Z VRB02KT 9999 FEW015 11/08 Q1026 NOSIG RMK A3031=
13042206:METAR SKBO 130600Z 07004KT 9999 FEW015 10/08 Q1026 NOSIG RMK A3029= 
13042207:METAR SKBO 130700Z 05004KT 9999 FEW017 11/08 Q1025 NOSIG RMK A3028= 
13042208:METAR SKBO 130800Z 08004KT 9999 FEW020 SCT080 11/08 Q1024 NOSIG RMK A3026= 
13042209:METAR SKBO 130900Z 04004KT 9999 FEW020 BKN080 11/09 Q1024 NOSIG RMK A3026= 
13042210:METAR SKBO 131000Z 03006KT 9999 FEW020 BKN080 11/08 Q1025 NOSIG RMK A3028= 
13042211:METAR SKBO 131100Z 07004KT 9999 FEW020 SCT080 11/08 Q1025 NOSIG RMK A3029=
13042212:METAR SKBO 131200Z 06006KT 9999 SCT023 SCT120 12/09 Q1026 NOSIG RMK A3031=
13042213:METAR SKBO 131300Z 06007KT 9999 SCT025 SCT120 13/09 Q1028 NOSIG RMK A3036=
13042214:METAR SKBO 131400Z 05007KT 9999 SCT025 BKN120 14/09 Q1028 NOSIG RMK A3036=
13042215:METAR SKBO 131500Z 04008KT 9999 BKN025 15/09 Q1027 TEMPO DZ RMK A3035=
13042216:METAR SKBO 131600Z 12007KT 060V160 9999 BKN023 16/08 Q1027 TEMPO DZ RMK A3034=
13042217:METAR SKBO 131700Z 14008KT 110V180 9999 BKN023 16/09 Q1026 NOSIG RMK A3032=
13042218:METAR SKBO 131800Z 15014KT 9999 VCSH BKN023 16/09 Q1025 NOSIG RMK VCSH/SE A3029=
13042219:METAR SKBO 131900Z 14008KT 9999 SCT020 BKN070 16/09 Q1025 NOSIG RMK A3026= 
13042220:METAR SKBO 132000Z 14008KT 9999 SCT023 BKN070 18/09 Q1024 NOSIG RMK A3024=
13042221:METAR SKBO 132100Z 18008KT 9999 SCT023 SCT070 18/008 Q1023 NOSIG RMK A3021=
13042222:METAR SKBO 132200Z 04009KT 9999 SCT023 SCT070 18/009 Q1023 NOSIG RMK A3021=
13042223:METAR SKBO 132300Z 03011KT 9999 SCT020 SCT070 16/008 Q1023 NOSIG RMK A3022=
14042200:METAR SKBO 140000Z 07006KT 9999 FEW015 15/07 Q1024 NOSIG RMK A3026=
14042201:METAR SKBO 140100Z 04006KT 9999 FEW020 12/08 Q1025 NOSIG RMK A3029=
14042202:METAR SKBO 140200Z VRB02KT 9999 NSC 12/08 Q1026 NOSIG RMK A3031=
14042203:METAR SKBO 140300Z VRB02KT 9999 NSC 11/07 Q1026 NOSIG RMK A3032=
14042204:METAR SKBO 140400Z VRB02KT 9999 NSC 08/07 Q1027 NOSIG RMK A3032=
14042205:METAR SKBO 140500Z VRB02KT 9999 NSC 09/07 Q1027 NOSIG RMK A3032=
14042206:METAR SKBO 140600Z VRB02KT 9999 NSC 07/06 Q1026 NOSIG RMK A3031=
14042207:METAR SKBO 140700Z VRB02KT 9999 NSC 08/07 Q1025 NOSIG RMK A3028=
14042208:METAR SKBO 140800Z 35003KT 9999 NSC 06/06 Q1025 NOSIG RMK A3027=
14042209:METAR SKBO 140900Z VRB02KT 9999 NSC 06/06 Q1025 NOSIG RMK A3027=
14042210:METAR SKBO 141000Z 03004KT 9999 NSC 05/04 Q1025 NOSIG RMK A3027=
14042211:METAR SKBO 141100Z 03005KT 9999 FEW015 BKN200 07/06 Q1025 NOSIG RMK A3028=
14042212:METAR SKBO 141200Z 06007KT 9999 FEW020 10/08 Q1026 NOSIG RMK A3031=
14042213:METAR SKBO 141300Z 05006KT 9999 FEW020 13/09 Q1027 NOSIG RMK A3033=
14042214:METAR SKBO 141400Z 07006KT 9999 FEW020 15/08 Q1027 NOSIG RMK A3033=
14042215:METAR SKBO 141500Z 05007KT 9999 FEW023 17/09 Q1026 NOSIG RMK A3032=
14042216:METAR SKBO 141600Z 10008KT 9999 FEW023 19/07 Q1026 NOSIG RMK A3031=
14042217:METAR SKBO 141700Z 16012KT 9999 SCT020 20/07 Q1026 NOSIG RMK A3029=
14042218:METAR SKBO 141800Z 13006KT 9999 BKN027 19/08 Q1025 NOSIG RMK A3027=
14042219:METAR SKBO 141900Z 14007KT 9999 BKN027 19/08 Q1024 NOSIG RMK A3025=
14042220:METAR SKBO 142000Z 11005KT 9999 SCT027 BKN070 19/08 Q1023 NOSIG RMK A3022=
14042221:METAR SKBO 142100Z 30003KT 9999 FEW027 BKN070 19/10 Q1023 NOSIG RMK A3021=
14042222:METAR SKBO 142200Z 10004KT 9999 SCT027 SCT070 18/08 Q1023 NOSIG RMK A3021=
14042223:METAR SKBO 142300Z 25005KT 9999 FEW023 SCT070 BKN200 16/12 Q1024 NOSIG RMK A3024= 
15042200:METAR SKBO 150000Z 21003KT 9999 FEW023 SCT070 15/11 Q1025 NOSIG RMK A3027= 
15042201:METAR SKBO 150100Z 00000KT 9999 FEW023 SCT200 11/10 Q1026 NOSIG RMK A3031= 
15042202:METAR SKBO 150200Z 00000KT 9999 FEW023 11/10 Q1027 NOSIG RMK A3033=
15042203:METAR SKBO 150300Z VRB02KT 9999 FEW020 10/09 Q1028 NOSIG RMK A3036=
15042204:METAR SKBO 150400Z VRB02KT 9999 NSC 11/09 Q1027 NOSIG RMK A3035=
15042205:METAR SKBO 150500Z 06004KT 9999 NSC 10/09 Q1027 NOSIG RMK A3034=
15042206:
15042207:
15042208:
15042209:
15042210:
15042211:METAR SKBO 151100Z 04003KT 9999 BKN017 SCT080 12/10 NOSIG RMK A3031=
15042212:METAR SKBO 151200Z 06005KT 9999 SCT017 SCT080 13/10 Q1026 NOSIG RMK A3032=
15042213:METAR SKBO 151300Z 02003KT 9999 SCT020 SCT080 14/10 Q1028 NOSIG RMK A3036=
15042214:METAR SKBO 151400Z 06004KT 9999 SCT020 BKN200 17/11 Q1028 NOSIG RMK A3036=
15042215:METAR SKBO 151500Z 04004KT 9999 SCT023 SCT200 17/10 Q1028 NOSIG RMK A3036=
15042216:METAR SKBO 151600Z 15006KT 9999 BKN023 SCT200 18/09 Q1027 NOSIG RMK A3033=
15042217:METAR SKBO 151700Z 12005KT 9999 SCT023 BKN200 19/08 Q1026 NOSIG RMK A3031=
15042218:METAR SKBO 151800Z 13005KT 9999 SCT023 BKN200 20/08 Q1025 NOSIG RMK A3027=
15042219:METAR SKBO 151900Z 16004KT 9999 SCT023 BKN200 20/08 Q1024 WS R13L NOSIG RMK A3024=
15042220:METAR SKBO 152000Z 23007KT 9999 SCT023 BKN200 19/12 Q1023 NOSIG RMK A3022=
15042221:METAR SKBO 152100Z 30005KT 9999 SCT023 BKN200 20/12 Q1023 NOSIG RMK A3021=
15042222:METAR SKBO 152200Z 30005KT 9999 SCT023 BKN200 18/12 Q1023 NOSIG RMK A3023=
15042223:METAR SKBO 152300Z 13005KT 9999 SCT020 BKN200 18/12 Q1024 NOSIG RMK A3024=
16042200:METAR SKBO 160000Z 19004KT 9999 FEW020 17/09 Q1024 NOSIG RMK A3025=
16042201:METAR SKBO 160100Z 28004KT 9999 FEW020 SCT200 15/11 Q1025 NOSIG RMK A3029=
16042202:METAR SKBO 160200Z 06004KT 9999 FEW020 SCT200 13/10 Q1026 NOSIG RMK A3032=
16042203:METAR SKBO 160300Z VRB02KT 9999 FEW017 SCT200 13/09 Q1027 NOSIG RMK A3034=
16042204:
16042205:METAR SKBO 160500Z VRB02KT 9999 FEW017 SCT080 12/10 Q1027 NOSIG RMK A3034= 
16042206:
16042207:METAR SKBO 160700Z VRB02KT 9999 FEW020 SCT080 11/10 Q1025 NOSIG RMK A3028= 
16042208:METAR SKBO 160800Z VRB02KT 9999 FEW020 SCT080 10/09 Q1024 NOSIG RMK A3026= 
16042209:METAR SKBO 160900Z 07004KT 9999 FEW017 BKN200 09/08 Q1024 NOSIG RMK A3026= 
16042210:METAR SKBO 161000Z 05004KT 9999 FEW017 SCT080 09/09 Q1024 NOSIG RMK A3026= 
16042211:METAR SKBO 161100Z VRB02KT 9999 FEW017 SCT200 09/08 Q1025 NOSIG RMK A3028= 
16042212:METAR SKBO 161200Z 02003KT 9999 FEW025 OVC120 10/09 Q1026 NOSIG RMK A3032=
16042213:METAR SKBO 161300Z 03004KT 9999 FEW025 OVC120 13/11 Q1027 NOSIG RMK A3034= 
16042214:METAR SKBO 161400Z 02004KT 9999 FEW025 OVC120 15/10 Q1027 NOSIG RMK A3035= 
16042215:METAR SKBO 161500Z 22003KT 9999 FEW027 BKN120 18/09 Q1026 NOSIG RMK A3032=
16042216:
16042217:METAR SKBO 161700Z 16013KT 140V200 9999 SCT025 BKN250 20/09 Q1026 NOSIG RMK A3030=
16042218:METAR SKBO 161800Z 15013KT 9999 SCT025 BKN250 21/09 Q1024 NOSIG RMK A3026=
16042219:METAR SKBO 161900Z 24009KT 200V280 9999 SCT025 BKN250 20/12 Q1023 NOSIG RMK A3023=
16042220:METAR SKBO 162000Z 24012KT 200V260 9999 SCT025 BKN250 19/12 Q1023 NOSIG RMK A3021=
16042221:METAR SKBO 162100Z 25013KT 9999 VCSH SCT023TCU BKN250 17/10 Q1023 TEMPO DZ RMK TCU VCSH/NE/E A3021=
16042222:METAR SKBO 162200Z 35006KT 9999 TS FEW020 BKN023CB 15/11 Q1024 NOSIG RMK CB VCSH/NE A3024=
16042223:METAR SKBO 162300Z 02003KT 9999 VCSH BKN023 SCT100 15/11 Q1024 RETS NOSIG RMK VCSH/W/NW A3026=
17042200:
